CCSDS_OMM_VERS = 2.0
CREATION_DATE  = 
ORIGINATOR     = 

OBJECT_NAME    = ATLAS CENTAUR 2
OBJECT_ID      = 1963-047A
CENTER_NAME    = EARTH
REF_FRAME      = TEME
TIME_SYSTEM    = UTC
MEAN_ELEMENT_THEORY = SGP/SGP4

EPOCH          = 2025-12-26T00:25:23.094624
MEAN_MOTION    = 14.11815886
ECCENTRICITY   = .05486622
INCLINATION    = 30.3526
RA_OF_ASC_NODE = 247.2891
ARG_OF_PERICENTER = 151.1393
MEAN_ANOMALY   = 212.0731

EPHEMERIS_TYPE = 0
CLASSIFICATION_TYPE = U
NORAD_CAT_ID   = 694
ELEMENT_SET_NO = 999
REV_AT_EPOCH   = 12120
BSTAR          = .23277436E-3
MEAN_MOTION_DOT = .1998E-4
MEAN_MOTION_DDOT = 0

CCSDS_OMM_VERS = 2.0
CREATION_DATE  = 
ORIGINATOR     = 

OBJECT_NAME    = THOR AGENA D R/B
OBJECT_ID      = 1964-002A
CENTER_NAME    = EARTH
REF_FRAME      = TEME
TIME_SYSTEM    = UTC
MEAN_ELEMENT_THEORY = SGP/SGP4

EPOCH          = 2025-12-26T06:12:56.158848
MEAN_MOTION    = 14.33967298
ECCENTRICITY   = .00338281
INCLINATION    = 99.1220
RA_OF_ASC_NODE = 4.6088
ARG_OF_PERICENTER = 111.6230
MEAN_ANOMALY   = 248.8562

EPHEMERIS_TYPE = 0
CLASSIFICATION_TYPE = U
NORAD_CAT_ID   = 733
ELEMENT_SET_NO = 999
REV_AT_EPOCH   = 22777
BSTAR          = .9861652E-4
MEAN_MOTION_DOT = .228E-5
MEAN_MOTION_DDOT = 0

CCSDS_OMM_VERS = 2.0
CREATION_DATE  = 
ORIGINATOR     = 

OBJECT_NAME    = SL-3 R/B
OBJECT_ID      = 1964-053B
CENTER_NAME    = EARTH
REF_FRAME      = TEME
TIME_SYSTEM    = UTC
MEAN_ELEMENT_THEORY = SGP/SGP4

EPOCH          = 2025-12-25T22:01:41.593728
MEAN_MOTION    = 14.61285068
ECCENTRICITY   = .0074977
INCLINATION    = 65.0748
RA_OF_ASC_NODE = 187.5042
ARG_OF_PERICENTER = 316.0115
MEAN_ANOMALY   = 43.5032

EPHEMERIS_TYPE = 0
CLASSIFICATION_TYPE = U
NORAD_CAT_ID   = 877
ELEMENT_SET_NO = 999
REV_AT_EPOCH   = 25601
BSTAR          = .5948E-4
MEAN_MOTION_DOT = .181E-5
MEAN_MOTION_DDOT = 0

CCSDS_OMM_VERS = 2.0
CREATION_DATE  = 
ORIGINATOR     = 

OBJECT_NAME    = SL-8 R/B
OBJECT_ID      = 1967-045B
CENTER_NAME    = EARTH
REF_FRAME      = TEME
TIME_SYSTEM    = UTC
MEAN_ELEMENT_THEORY = SGP/SGP4

EPOCH          = 2025-12-26T06:54:44.617824
MEAN_MOTION    = 14.45550813
ECCENTRICITY   = .00636167
INCLINATION    = 74.0110
RA_OF_ASC_NODE = 125.1644
ARG_OF_PERICENTER = 151.1270
MEAN_ANOMALY   = 209.3433

EPHEMERIS_TYPE = 0
CLASSIFICATION_TYPE = U
NORAD_CAT_ID   = 2802
ELEMENT_SET_NO = 999
REV_AT_EPOCH   = 7841
BSTAR          = .14339044E-3
MEAN_MOTION_DOT = .491E-5
MEAN_MOTION_DDOT = 0

CCSDS_OMM_VERS = 2.0
CREATION_DATE  = 
ORIGINATOR     = 

OBJECT_NAME    = SL-8 R/B
OBJECT_ID      = 1968-040B
CENTER_NAME    = EARTH
REF_FRAME      = TEME
TIME_SYSTEM    = UTC
MEAN_ELEMENT_THEORY = SGP/SGP4

EPOCH          = 2025-12-26T06:56:47.914944
MEAN_MOTION    = 15.02618706
ECCENTRICITY   = .00261017
INCLINATION    = 74.0311
RA_OF_ASC_NODE = 103.6037
ARG_OF_PERICENTER = 303.0276
MEAN_ANOMALY   = 56.8404

EPHEMERIS_TYPE = 0
CLASSIFICATION_TYPE = U
NORAD_CAT_ID   = 3230
ELEMENT_SET_NO = 999
REV_AT_EPOCH   = 7898
BSTAR          = .28687897E-3
MEAN_MOTION_DOT = .3808E-4
MEAN_MOTION_DDOT = 0

CCSDS_OMM_VERS = 2.0
CREATION_DATE  = 
ORIGINATOR     = 

OBJECT_NAME    = OAO 2
OBJECT_ID      = 1968-110A
CENTER_NAME    = EARTH
REF_FRAME      = TEME
TIME_SYSTEM    = UTC
MEAN_ELEMENT_THEORY = SGP/SGP4

EPOCH          = 2025-12-25T14:52:56.055072
MEAN_MOTION    = 14.47251778
ECCENTRICITY   = .0005858
INCLINATION    = 34.9948
RA_OF_ASC_NODE = 318.7552
ARG_OF_PERICENTER = 317.8916
MEAN_ANOMALY   = 42.1325

EPHEMERIS_TYPE = 0
CLASSIFICATION_TYPE = U
NORAD_CAT_ID   = 3597
ELEMENT_SET_NO = 999
REV_AT_EPOCH   = 836
BSTAR          = .80945E-4
MEAN_MOTION_DOT = .281E-5
MEAN_MOTION_DDOT = 0

CCSDS_OMM_VERS = 2.0
CREATION_DATE  = 
ORIGINATOR     = 

OBJECT_NAME    = ISIS 1
OBJECT_ID      = 1969-009A
CENTER_NAME    = EARTH
REF_FRAME      = TEME
TIME_SYSTEM    = UTC
MEAN_ELEMENT_THEORY = SGP/SGP4

EPOCH          = 2025-12-26T03:50:22.787808
MEAN_MOTION    = 11.30360746
ECCENTRICITY   = .17071086
INCLINATION    = 88.4493
RA_OF_ASC_NODE = 163.3283
ARG_OF_PERICENTER = 237.5762
MEAN_ANOMALY   = 104.8858

EPHEMERIS_TYPE = 0
CLASSIFICATION_TYPE = U
NORAD_CAT_ID   = 3669
ELEMENT_SET_NO = 999
REV_AT_EPOCH   = 34022
BSTAR          = .21455949E-3
MEAN_MOTION_DOT = .298E-5
MEAN_MOTION_DDOT = 0

CCSDS_OMM_VERS = 2.0
CREATION_DATE  = 
ORIGINATOR     = 

OBJECT_NAME    = SERT 2
OBJECT_ID      = 1970-009A
CENTER_NAME    = EARTH
REF_FRAME      = TEME
TIME_SYSTEM    = UTC
MEAN_ELEMENT_THEORY = SGP/SGP4

EPOCH          = 2025-12-26T07:14:49.224768
MEAN_MOTION    = 13.58719893
ECCENTRICITY   = .00049684
INCLINATION    = 99.2671
RA_OF_ASC_NODE = 302.4468
ARG_OF_PERICENTER = 2.7860
MEAN_ANOMALY   = 153.0859

EPHEMERIS_TYPE = 0
CLASSIFICATION_TYPE = U
NORAD_CAT_ID   = 4327
ELEMENT_SET_NO = 999
REV_AT_EPOCH   = 76992
BSTAR          = .14451449E-3
MEAN_MOTION_DOT = .64E-6
MEAN_MOTION_DDOT = 0

CCSDS_OMM_VERS = 2.0
CREATION_DATE  = 
ORIGINATOR     = 

OBJECT_NAME    = SL-3 R/B
OBJECT_ID      = 1971-028B
CENTER_NAME    = EARTH
REF_FRAME      = TEME
TIME_SYSTEM    = UTC
MEAN_ELEMENT_THEORY = SGP/SGP4

EPOCH          = 2025-12-26T06:06:58.554432
MEAN_MOTION    = 15.55257495
ECCENTRICITY   = .00190638
INCLINATION    = 81.2382
RA_OF_ASC_NODE = 142.3203
ARG_OF_PERICENTER = 191.9968
MEAN_ANOMALY   = 168.0831

EPHEMERIS_TYPE = 0
CLASSIFICATION_TYPE = U
NORAD_CAT_ID   = 5118
ELEMENT_SET_NO = 999
REV_AT_EPOCH   = 97723
BSTAR          = .486125E-3
MEAN_MOTION_DOT = .33275E-3
MEAN_MOTION_DDOT = 0

CCSDS_OMM_VERS = 2.0
CREATION_DATE  = 
ORIGINATOR     = 

OBJECT_NAME    = ASTEX 1
OBJECT_ID      = 1971-089A
CENTER_NAME    = EARTH
REF_FRAME      = TEME
TIME_SYSTEM    = UTC
MEAN_ELEMENT_THEORY = SGP/SGP4

EPOCH          = 2025-12-26T07:03:09.472032
MEAN_MOTION    = 14.50658380
ECCENTRICITY   = .00146103
INCLINATION    = 92.7149
RA_OF_ASC_NODE = 128.0051
ARG_OF_PERICENTER = 340.5581
MEAN_ANOMALY   = 19.5066

EPHEMERIS_TYPE = 0
CLASSIFICATION_TYPE = U
NORAD_CAT_ID   = 5560
ELEMENT_SET_NO = 999
REV_AT_EPOCH   = 85166
BSTAR          = .14808683E-3
MEAN_MOTION_DOT = .581E-5
MEAN_MOTION_DDOT = 0

CCSDS_OMM_VERS = 2.0
CREATION_DATE  = 
ORIGINATOR     = 

OBJECT_NAME    = SL-8 R/B
OBJECT_ID      = 1971-119B
CENTER_NAME    = EARTH
REF_FRAME      = TEME
TIME_SYSTEM    = UTC
MEAN_ELEMENT_THEORY = SGP/SGP4

EPOCH          = 2025-12-26T06:32:11.190336
MEAN_MOTION    = 14.36057997
ECCENTRICITY   = .05582686
INCLINATION    = 73.8894
RA_OF_ASC_NODE = 312.7673
ARG_OF_PERICENTER = 294.3168
MEAN_ANOMALY   = 60.0661

EPHEMERIS_TYPE = 0
CLASSIFICATION_TYPE = U
NORAD_CAT_ID   = 5730
ELEMENT_SET_NO = 999
REV_AT_EPOCH   = 64494
BSTAR          = .63360342E-3
MEAN_MOTION_DOT = .12195E-3
MEAN_MOTION_DDOT = 0

CCSDS_OMM_VERS = 2.0
CREATION_DATE  = 
ORIGINATOR     = 

OBJECT_NAME    = OAO 3 (COPERNICUS)
OBJECT_ID      = 1972-065A
CENTER_NAME    = EARTH
REF_FRAME      = TEME
TIME_SYSTEM    = UTC
MEAN_ELEMENT_THEORY = SGP/SGP4

EPOCH          = 2025-12-26T06:40:42.413088
MEAN_MOTION    = 14.59918059
ECCENTRICITY   = .00072177
INCLINATION    = 35.0071
RA_OF_ASC_NODE = 355.5443
ARG_OF_PERICENTER = 278.5349
MEAN_ANOMALY   = 97.5421

EPHEMERIS_TYPE = 0
CLASSIFICATION_TYPE = U
NORAD_CAT_ID   = 6153
ELEMENT_SET_NO = 999
REV_AT_EPOCH   = 83546
BSTAR          = .95978075E-4
MEAN_MOTION_DOT = .446E-5
MEAN_MOTION_DDOT = 0

