ATLAS CENTAUR 2         
1 00694U 63047A   25360.01762841  .00001998  00000+0  23277-3 0  9994
2 00694  30.3526 247.2891 0548662 151.1393 212.0731 14.11815886121202
THOR AGENA D R/B        
1 00733U 64002A   25360.25898332  .00000228  00000+0  98617-4 0  9997
2 00733  99.1220   4.6088 0033828 111.6230 248.8562 14.33967298227774
SL-3 R/B                
1 00877U 64053B   25359.91784252  .00000181  00000+0  59480-4 0  9991
2 00877  65.0748 187.5042 0074977 316.0115  43.5032 14.61285068256014
SL-8 R/B                
1 02802U 67045B   25360.28801641  .00000491  00000+0  14339-3 0  9996
2 02802  74.0110 125.1644 0063616 151.1270 209.3433 14.45550813 78419
SL-8 R/B                
1 03230U 68040B   25360.28944346  .00003808  00000+0  28688-3 0  9995
2 03230  74.0311 103.6037 0026101 303.0276  56.8404 15.02618706 78982
OAO 2                   
1 03597U 68110A   25359.62009323  .00000281  00000+0  80945-4 0  9999
2 03597  34.9948 318.7552 0005858 317.8916  42.1325 14.47251778  8365
ISIS 1                  
1 03669U 69009A   25360.15998597  .00000298  00000+0  21456-3 0  9996
2 03669  88.4493 163.3283 1707108 237.5762 104.8858 11.30360746340220
SERT 2                  
1 04327U 70009A   25360.30195862  .00000064  00000+0  14451-3 0  9999
2 04327  99.2671 302.4468 0004968   2.7860 153.0859 13.58719893769927
SL-3 R/B                
1 05118U 71028B   25360.25484438  .00033275  00000+0  48613-3 0  9991
2 05118  81.2382 142.3203 0019063 191.9968 168.0831 15.55257495977231
ASTEX 1                 
1 05560U 71089A   25360.29385963  .00000581  00000+0  14809-3 0  9990
2 05560  92.7149 128.0051 0014610 340.5581  19.5066 14.50658380851668
SL-8 R/B                
1 05730U 71119B   25360.27235174  .00012195  00000+0  63360-3 0  9999
2 05730  73.8894 312.7673 0558268 294.3168  60.0661 14.36057997644949
OAO 3 (COPERNICUS)      
1 06153U 72065A   25360.27826867  .00000446  00000+0  95978-4 0  9992
2 06153  35.0071 355.5443 0007217 278.5349  97.5421 14.59918059835462
